{
"type": "FeatureCollection",
"name": "new_road_tula_region",
"crs": { "type": "name", "properties": { "name": "urn:ogc:def:crs:EPSG::32637" } },
"features": [
{ "type": "Feature", "properties": { "maxspeed": 1000.0, "highway": null, "ref": null, "reg": 1, "node_start": null, "node_end": null }, "geometry": { "type": "LineString", "coordinates": [ [ 390444.880215983139351, 6012584.464732779189944 ], [ 390410.010604827606585, 6012468.081744896247983 ], [ 390384.210303488303907, 6012094.736207867972553 ], [ 390366.803042669955175, 6010730.802607004530728 ], [ 390031.146990494220518, 6009136.436359169892967 ], [ 389443.748899186670315, 6007793.812150467187166 ], [ 389359.834886142692994, 6006346.295425458811224 ], [ 389304.94499843812082, 6002833.342612359672785 ], [ 390951.641629578836728, 6000582.857216467149556 ], [ 393421.686576289881486, 5998387.261708279140294 ], [ 394629.264105793088675, 5995368.317884521558881 ], [ 395233.052870544663165, 5993282.50215174164623 ], [ 394190.145004155521747, 5990647.787541916593909 ], [ 393696.136014813324437, 5988232.632482910528779 ], [ 394245.034891860210337, 5985927.257199313491583 ], [ 395342.832645954040345, 5983292.542589488439262 ], [ 396166.180961524369195, 5981316.506632119417191 ], [ 396715.079838571255095, 5977474.214492791332304 ], [ 395891.731523000926245, 5975662.848198536783457 ], [ 392104.329271377355326, 5973137.91336412075907 ], [ 390896.751741874148138, 5971106.987519047223032 ], [ 391335.870843511656858, 5968527.162796926684678 ], [ 393311.906800880504306, 5965837.55829939711839 ], [ 403537.970912979508284, 5960857.993575260043144 ], [ 409773.053250642144121, 5957615.750759676098824 ], [ 415347.805168620077893, 5952771.110417655669153 ] ] } }
]
}
