{
"type": "FeatureCollection",
"name": "station",
"crs": { "type": "name", "properties": { "name": "urn:ogc:def:crs:OGC:1.3:CRS84" } },
"features": [
{ "type": "Feature", "properties": { "full_id": "n260381479", "osm_id": "260381479", "osm_type": "node", "railway": "station", "name:de": null, "end_date": null, "distance": null, "wheelchair": null, "ref_name": null, "disused": null, "source:name": null, "description": null, "gauge": null, "start_date": null, "name:lt": null, "addr:city": null, "express:user": null, "wikipedia:ru": null, "old_name": null, "alt_name:ru": null, "alt_name:en": null, "alt_name": null, "uic_name": null, "network": null, "name:ru": null, "wikipedia": "ru:Шульгино (станция)", "platforms": "2", "int_name": "Shulgino", "wikidata": "Q16721153", "uic_ref": "2000168", "train": "yes", "public_transport": "station", "operator:branch": "Московская железная дорога", "operator": "ОАО «РЖД»", "name:en": "Shulgino", "name": "Шульгино", "esr:user": "210729" }, "geometry": { "type": "Point", "coordinates": [ 37.5946861, 54.5746586 ] } },
{ "type": "Feature", "properties": { "full_id": "n266730979", "osm_id": "266730979", "osm_type": "node", "railway": "station", "name:de": null, "end_date": null, "distance": null, "wheelchair": null, "ref_name": null, "disused": null, "source:name": null, "description": null, "gauge": null, "start_date": null, "name:lt": null, "addr:city": null, "express:user": null, "wikipedia:ru": null, "old_name": null, "alt_name:ru": null, "alt_name:en": null, "alt_name": null, "uic_name": null, "network": null, "name:ru": "Грицово", "wikipedia": null, "platforms": null, "int_name": null, "wikidata": "Q109638352", "uic_ref": "2000127", "train": "yes", "public_transport": "station", "operator:branch": "Московская железная дорога", "operator": "ОАО «РЖД»", "name:en": null, "name": "Грицово", "esr:user": "226604" }, "geometry": { "type": "Point", "coordinates": [ 38.1793483, 54.1321507 ] } },
{ "type": "Feature", "properties": { "full_id": "n305390572", "osm_id": "305390572", "osm_type": "node", "railway": "station", "name:de": null, "end_date": null, "distance": null, "wheelchair": null, "ref_name": null, "disused": null, "source:name": null, "description": null, "gauge": null, "start_date": null, "name:lt": null, "addr:city": null, "express:user": null, "wikipedia:ru": null, "old_name": null, "alt_name:ru": "Тула-3", "alt_name:en": "Tula-3", "alt_name": "Тула-3", "uic_name": "Tula-Vyazemskaya", "network": null, "name:ru": "Тула-Вяземская", "wikipedia": null, "platforms": null, "int_name": null, "wikidata": null, "uic_ref": "2000173", "train": "yes", "public_transport": "station", "operator:branch": "Московская железная дорога", "operator": "ОАО «РЖД»", "name:en": "Tula-Vyazemskaya", "name": "Тула-Вяземская", "esr:user": "210305" }, "geometry": { "type": "Point", "coordinates": [ 37.6287177, 54.2091679 ] } },
{ "type": "Feature", "properties": { "full_id": "n305391147", "osm_id": "305391147", "osm_type": "node", "railway": "station", "name:de": null, "end_date": null, "distance": null, "wheelchair": null, "ref_name": null, "disused": null, "source:name": null, "description": null, "gauge": null, "start_date": null, "name:lt": null, "addr:city": null, "express:user": null, "wikipedia:ru": null, "old_name": "Козлова Засека", "alt_name:ru": null, "alt_name:en": null, "alt_name": null, "uic_name": null, "network": null, "name:ru": null, "wikipedia": "ru:Ясная Поляна (станция)", "platforms": null, "int_name": null, "wikidata": "Q4226814", "uic_ref": "2000176", "train": "yes", "public_transport": "station", "operator:branch": "Московская железная дорога", "operator": "ОАО «РЖД»", "name:en": "Yasnaya Polyana", "name": "Ясная Поляна", "esr:user": "213905" }, "geometry": { "type": "Point", "coordinates": [ 37.5689479, 54.0965421 ] } },
{ "type": "Feature", "properties": { "full_id": "n307471367", "osm_id": "307471367", "osm_type": "node", "railway": "station", "name:de": null, "end_date": null, "distance": null, "wheelchair": null, "ref_name": null, "disused": null, "source:name": null, "description": null, "gauge": null, "start_date": null, "name:lt": null, "addr:city": null, "express:user": null, "wikipedia:ru": null, "old_name": null, "alt_name:ru": null, "alt_name:en": null, "alt_name": null, "uic_name": null, "network": null, "name:ru": null, "wikipedia": null, "platforms": null, "int_name": null, "wikidata": null, "uic_ref": "2000954", "train": "yes", "public_transport": "station", "operator:branch": "Московская железная дорога", "operator": "ОАО «РЖД»", "name:en": "Berniki", "name": "Берники", "esr:user": "212404" }, "geometry": { "type": "Point", "coordinates": [ 37.2474723, 54.2888337 ] } },
{ "type": "Feature", "properties": { "full_id": "n307471691", "osm_id": "307471691", "osm_type": "node", "railway": "station", "name:de": null, "end_date": null, "distance": null, "wheelchair": null, "ref_name": null, "disused": null, "source:name": null, "description": null, "gauge": null, "start_date": null, "name:lt": null, "addr:city": null, "express:user": null, "wikipedia:ru": null, "old_name": null, "alt_name:ru": null, "alt_name:en": null, "alt_name": null, "uic_name": null, "network": null, "name:ru": null, "wikipedia": null, "platforms": null, "int_name": null, "wikidata": null, "uic_ref": "2000201", "train": null, "public_transport": null, "operator:branch": null, "operator": null, "name:en": "Chekalin", "name": "Чекалин", "esr:user": "212917" }, "geometry": { "type": "Point", "coordinates": [ 36.2922086, 54.0514005 ] } },
{ "type": "Feature", "properties": { "full_id": "n310741876", "osm_id": "310741876", "osm_type": "node", "railway": "station", "name:de": null, "end_date": null, "distance": null, "wheelchair": null, "ref_name": null, "disused": null, "source:name": null, "description": null, "gauge": null, "start_date": null, "name:lt": null, "addr:city": null, "express:user": null, "wikipedia:ru": null, "old_name": null, "alt_name:ru": null, "alt_name:en": null, "alt_name": null, "uic_name": null, "network": null, "name:ru": null, "wikipedia": null, "platforms": null, "int_name": null, "wikidata": null, "uic_ref": "2000142", "train": "yes", "public_transport": "station", "operator:branch": "Московская железная дорога", "operator": "ОАО «РЖД»", "name:en": "Krivoluchye", "name": "Криволучье", "esr:user": "211806" }, "geometry": { "type": "Point", "coordinates": [ 37.6936801, 54.182833 ] } },
{ "type": "Feature", "properties": { "full_id": "n329490039", "osm_id": "329490039", "osm_type": "node", "railway": "station", "name:de": null, "end_date": null, "distance": null, "wheelchair": null, "ref_name": null, "disused": null, "source:name": null, "description": null, "gauge": null, "start_date": null, "name:lt": null, "addr:city": null, "express:user": null, "wikipedia:ru": null, "old_name": null, "alt_name:ru": null, "alt_name:en": null, "alt_name": null, "uic_name": null, "network": null, "name:ru": null, "wikipedia": null, "platforms": null, "int_name": null, "wikidata": "Q4539389", "uic_ref": "2001003", "train": "yes", "public_transport": "station", "operator:branch": "Московская железная дорога", "operator": "ОАО «РЖД»", "name:en": "Yasnogorsk", "name": "Ясногорск", "esr:user": "210708" }, "geometry": { "type": "Point", "coordinates": [ 37.6850121, 54.4790325 ] } },
{ "type": "Feature", "properties": { "full_id": "n405105298", "osm_id": "405105298", "osm_type": "node", "railway": "station", "name:de": null, "end_date": null, "distance": null, "wheelchair": null, "ref_name": null, "disused": null, "source:name": null, "description": null, "gauge": null, "start_date": null, "name:lt": null, "addr:city": null, "express:user": null, "wikipedia:ru": null, "old_name": null, "alt_name:ru": null, "alt_name:en": null, "alt_name": null, "uic_name": null, "network": null, "name:ru": null, "wikipedia": null, "platforms": null, "int_name": null, "wikidata": null, "uic_ref": "2000122", "train": "yes", "public_transport": "station", "operator:branch": "Московская железная дорога", "operator": "ОАО «РЖД»", "name:en": null, "name": "Мордвес", "esr:user": "226801" }, "geometry": { "type": "Point", "coordinates": [ 38.2228364, 54.574968 ] } },
{ "type": "Feature", "properties": { "full_id": "n529705099", "osm_id": "529705099", "osm_type": "node", "railway": "station", "name:de": null, "end_date": null, "distance": null, "wheelchair": null, "ref_name": null, "disused": null, "source:name": null, "description": null, "gauge": null, "start_date": null, "name:lt": null, "addr:city": null, "express:user": null, "wikipedia:ru": null, "old_name": null, "alt_name:ru": null, "alt_name:en": null, "alt_name": null, "uic_name": null, "network": null, "name:ru": null, "wikipedia": null, "platforms": null, "int_name": null, "wikidata": null, "uic_ref": "2001071", "train": "yes", "public_transport": null, "operator:branch": "Московская железная дорога", "operator": "ОАО «РЖД»", "name:en": null, "name": "Промгипсовая", "esr:user": "225508" }, "geometry": { "type": "Point", "coordinates": [ 38.2500975, 54.0495697 ] } },
{ "type": "Feature", "properties": { "full_id": "n536671283", "osm_id": "536671283", "osm_type": "node", "railway": "station", "name:de": null, "end_date": null, "distance": null, "wheelchair": null, "ref_name": null, "disused": null, "source:name": null, "description": null, "gauge": null, "start_date": null, "name:lt": null, "addr:city": null, "express:user": null, "wikipedia:ru": "Тарусская (станция)", "old_name": null, "alt_name:ru": null, "alt_name:en": null, "alt_name": null, "uic_name": "Tarusskaia", "network": null, "name:ru": null, "wikipedia": null, "platforms": null, "int_name": "Tarusskaya", "wikidata": "Q4452192", "uic_ref": "2001062", "train": "yes", "public_transport": "station", "operator:branch": "Московская железная дорога", "operator": "ОАО «РЖД»", "name:en": null, "name": "Тарусская", "esr:user": "210907" }, "geometry": { "type": "Point", "coordinates": [ 37.400701, 54.7351098 ] } },
{ "type": "Feature", "properties": { "full_id": "n549941579", "osm_id": "549941579", "osm_type": "node", "railway": "station", "name:de": null, "end_date": null, "distance": null, "wheelchair": null, "ref_name": null, "disused": null, "source:name": null, "description": null, "gauge": null, "start_date": null, "name:lt": null, "addr:city": null, "express:user": null, "wikipedia:ru": null, "old_name": null, "alt_name:ru": null, "alt_name:en": null, "alt_name": null, "uic_name": "Schtschekino", "network": null, "name:ru": "Щёкино", "wikipedia": null, "platforms": null, "int_name": null, "wikidata": null, "uic_ref": "2000270", "train": "yes", "public_transport": "station", "operator:branch": "Московская железная дорога", "operator": "ОАО «РЖД»", "name:en": "Schekino", "name": "Щёкино", "esr:user": "214109" }, "geometry": { "type": "Point", "coordinates": [ 37.5008359, 54.0098853 ] } },
{ "type": "Feature", "properties": { "full_id": "n602157105", "osm_id": "602157105", "osm_type": "node", "railway": "station", "name:de": null, "end_date": null, "distance": null, "wheelchair": null, "ref_name": null, "disused": null, "source:name": null, "description": null, "gauge": null, "start_date": null, "name:lt": null, "addr:city": null, "express:user": null, "wikipedia:ru": null, "old_name": null, "alt_name:ru": null, "alt_name:en": null, "alt_name": null, "uic_name": null, "network": null, "name:ru": null, "wikipedia": null, "platforms": null, "int_name": null, "wikidata": "Q4499725", "uic_ref": "2001214", "train": "yes", "public_transport": "station", "operator:branch": "Московская железная дорога", "operator": "ОАО «РЖД»", "name:en": "Khomyakovo", "name": "Хомяково", "esr:user": "210502" }, "geometry": { "type": "Point", "coordinates": [ 37.6097103, 54.2946781 ] } },
{ "type": "Feature", "properties": { "full_id": "n602157111", "osm_id": "602157111", "osm_type": "node", "railway": "station", "name:de": null, "end_date": null, "distance": null, "wheelchair": null, "ref_name": null, "disused": null, "source:name": null, "description": null, "gauge": null, "start_date": null, "name:lt": null, "addr:city": null, "express:user": null, "wikipedia:ru": null, "old_name": null, "alt_name:ru": null, "alt_name:en": null, "alt_name": null, "uic_name": null, "network": null, "name:ru": null, "wikipedia": "ru:Ревякино (станция)", "platforms": null, "int_name": null, "wikidata": "Q16691508", "uic_ref": "2001046", "train": "yes", "public_transport": "station", "operator:branch": "Московская железная дорога", "operator": "ОАО «РЖД»", "name:en": "Revyakino", "name": "Ревякино", "esr:user": "210606" }, "geometry": { "type": "Point", "coordinates": [ 37.6630409, 54.3630414 ] } },
{ "type": "Feature", "properties": { "full_id": "n620884679", "osm_id": "620884679", "osm_type": "node", "railway": "station", "name:de": null, "end_date": null, "distance": null, "wheelchair": null, "ref_name": null, "disused": null, "source:name": null, "description": null, "gauge": null, "start_date": null, "name:lt": null, "addr:city": null, "express:user": null, "wikipedia:ru": null, "old_name": null, "alt_name:ru": null, "alt_name:en": null, "alt_name": null, "uic_name": null, "network": null, "name:ru": null, "wikipedia": null, "platforms": null, "int_name": null, "wikidata": null, "uic_ref": "2000959", "train": "yes", "public_transport": "station", "operator:branch": "Московская железная дорога", "operator": "ОАО «РЖД»", "name:en": "Upa", "name": "Упа", "esr:user": "212508" }, "geometry": { "type": "Point", "coordinates": [ 37.0495818, 54.2071911 ] } },
{ "type": "Feature", "properties": { "full_id": "n621782558", "osm_id": "621782558", "osm_type": "node", "railway": "station", "name:de": null, "end_date": null, "distance": null, "wheelchair": null, "ref_name": null, "disused": null, "source:name": null, "description": null, "gauge": null, "start_date": null, "name:lt": null, "addr:city": null, "express:user": null, "wikipedia:ru": null, "old_name": null, "alt_name:ru": null, "alt_name:en": null, "alt_name": null, "uic_name": null, "network": null, "name:ru": null, "wikipedia": null, "platforms": null, "int_name": null, "wikidata": null, "uic_ref": "2000197", "train": "yes", "public_transport": "station", "operator:branch": "Московская железная дорога", "operator": "ОАО «РЖД»", "name:en": "Hanino", "name": "Ханино", "esr:user": "212601" }, "geometry": { "type": "Point", "coordinates": [ 36.7016828, 54.1824603 ] } },
{ "type": "Feature", "properties": { "full_id": "n676679069", "osm_id": "676679069", "osm_type": "node", "railway": "station", "name:de": null, "end_date": null, "distance": null, "wheelchair": null, "ref_name": null, "disused": null, "source:name": null, "description": null, "gauge": null, "start_date": null, "name:lt": null, "addr:city": null, "express:user": null, "wikipedia:ru": null, "old_name": null, "alt_name:ru": null, "alt_name:en": null, "alt_name": null, "uic_name": "Gorbatschewo", "network": null, "name:ru": null, "wikipedia": null, "platforms": null, "int_name": null, "wikidata": null, "uic_ref": "2000184", "train": "yes", "public_transport": "station", "operator:branch": "Московская железная дорога", "operator": "ОАО «РЖД»", "name:en": null, "name": "Горбачёво", "esr:user": "214700" }, "geometry": { "type": "Point", "coordinates": [ 37.1320658, 53.6000676 ] } },
{ "type": "Feature", "properties": { "full_id": "n683302768", "osm_id": "683302768", "osm_type": "node", "railway": "station", "name:de": null, "end_date": null, "distance": null, "wheelchair": null, "ref_name": null, "disused": null, "source:name": null, "description": null, "gauge": null, "start_date": null, "name:lt": null, "addr:city": null, "express:user": null, "wikipedia:ru": null, "old_name": null, "alt_name:ru": null, "alt_name:en": null, "alt_name": null, "uic_name": null, "network": null, "name:ru": null, "wikipedia": null, "platforms": null, "int_name": null, "wikidata": null, "uic_ref": "2015349", "train": null, "public_transport": "station", "operator:branch": null, "operator": null, "name:en": null, "name": "Куликово поле", "esr:user": "593902" }, "geometry": { "type": "Point", "coordinates": [ 38.6614964, 53.4207099 ] } },
{ "type": "Feature", "properties": { "full_id": "n683311857", "osm_id": "683311857", "osm_type": "node", "railway": "station", "name:de": null, "end_date": null, "distance": null, "wheelchair": null, "ref_name": null, "disused": null, "source:name": null, "description": null, "gauge": null, "start_date": "1874", "name:lt": null, "addr:city": null, "express:user": null, "wikipedia:ru": null, "old_name": null, "alt_name:ru": null, "alt_name:en": null, "alt_name": null, "uic_name": "Shdanka", "network": null, "name:ru": null, "wikipedia": null, "platforms": null, "int_name": null, "wikidata": null, "uic_ref": "2000240", "train": "yes", "public_transport": "station", "operator:branch": "Московская железная дорога", "operator": "ОАО «РЖД»", "name:en": null, "name": "Жданка", "esr:user": "224609" }, "geometry": { "type": "Point", "coordinates": [ 38.1116167, 53.7790093 ] } },
{ "type": "Feature", "properties": { "full_id": "n859326961", "osm_id": "859326961", "osm_type": "node", "railway": "station", "name:de": null, "end_date": null, "distance": null, "wheelchair": null, "ref_name": null, "disused": null, "source:name": null, "description": null, "gauge": null, "start_date": null, "name:lt": null, "addr:city": null, "express:user": null, "wikipedia:ru": null, "old_name": null, "alt_name:ru": null, "alt_name:en": null, "alt_name": null, "uic_name": null, "network": null, "name:ru": null, "wikipedia": null, "platforms": null, "int_name": null, "wikidata": null, "uic_ref": "2000177", "train": "yes", "public_transport": "station", "operator:branch": "Московская железная дорога", "operator": "ОАО «РЖД»", "name:en": "Kaznacheevka", "name": "Казначеевка", "esr:user": "214005" }, "geometry": { "type": "Point", "coordinates": [ 37.5455208, 54.05255 ] } },
{ "type": "Feature", "properties": { "full_id": "n859588355", "osm_id": "859588355", "osm_type": "node", "railway": "station", "name:de": null, "end_date": null, "distance": null, "wheelchair": null, "ref_name": null, "disused": null, "source:name": null, "description": null, "gauge": null, "start_date": null, "name:lt": null, "addr:city": null, "express:user": null, "wikipedia:ru": null, "old_name": null, "alt_name:ru": null, "alt_name:en": null, "alt_name": null, "uic_name": null, "network": null, "name:ru": "Лазарево", "wikipedia": null, "platforms": null, "int_name": null, "wikidata": "Q105296711", "uic_ref": "2000179", "train": "yes", "public_transport": "station", "operator:branch": "Московская железная дорога", "operator": "ОАО «РЖД»", "name:en": null, "name": "Лазарево", "esr:user": "214202" }, "geometry": { "type": "Point", "coordinates": [ 37.49166, 53.84813 ] } },
{ "type": "Feature", "properties": { "full_id": "n859598852", "osm_id": "859598852", "osm_type": "node", "railway": "station", "name:de": null, "end_date": null, "distance": null, "wheelchair": null, "ref_name": null, "disused": null, "source:name": null, "description": null, "gauge": null, "start_date": null, "name:lt": null, "addr:city": null, "express:user": null, "wikipedia:ru": null, "old_name": null, "alt_name:ru": null, "alt_name:en": null, "alt_name": null, "uic_name": "Plawsk", "network": null, "name:ru": null, "wikipedia": null, "platforms": null, "int_name": null, "wikidata": null, "uic_ref": "2000182", "train": "yes", "public_transport": "station", "operator:branch": "Московская железная дорога", "operator": "ОАО «РЖД»", "name:en": null, "name": "Плавск", "esr:user": "214306" }, "geometry": { "type": "Point", "coordinates": [ 37.3137751, 53.7071568 ] } },
{ "type": "Feature", "properties": { "full_id": "n897451404", "osm_id": "897451404", "osm_type": "node", "railway": "station", "name:de": null, "end_date": null, "distance": null, "wheelchair": null, "ref_name": null, "disused": null, "source:name": null, "description": null, "gauge": null, "start_date": null, "name:lt": null, "addr:city": null, "express:user": null, "wikipedia:ru": null, "old_name": null, "alt_name:ru": null, "alt_name:en": null, "alt_name": null, "uic_name": null, "network": null, "name:ru": null, "wikipedia": null, "platforms": null, "int_name": null, "wikidata": null, "uic_ref": "2000133", "train": "yes", "public_transport": "station", "operator:branch": "Московская железная дорога", "operator": "ОАО «РЖД»", "name:en": null, "name": "Товарково", "esr:user": "224702" }, "geometry": { "type": "Point", "coordinates": [ 38.1715846, 53.689106 ] } },
{ "type": "Feature", "properties": { "full_id": "n1012079267", "osm_id": "1012079267", "osm_type": "node", "railway": "station", "name:de": null, "end_date": null, "distance": null, "wheelchair": null, "ref_name": null, "disused": null, "source:name": null, "description": null, "gauge": null, "start_date": null, "name:lt": null, "addr:city": null, "express:user": null, "wikipedia:ru": null, "old_name": null, "alt_name:ru": null, "alt_name:en": null, "alt_name": null, "uic_name": "Kimovsk", "network": null, "name:ru": null, "wikipedia": null, "platforms": null, "int_name": null, "wikidata": null, "uic_ref": "2000149", "train": "yes", "public_transport": "station", "operator:branch": "Московская железная дорога", "operator": "ОАО «РЖД»", "name:en": null, "name": "Кимовск", "esr:user": "227202" }, "geometry": { "type": "Point", "coordinates": [ 38.536348, 53.9651744 ] } },
{ "type": "Feature", "properties": { "full_id": "n1050366229", "osm_id": "1050366229", "osm_type": "node", "railway": "station", "name:de": null, "end_date": null, "distance": null, "wheelchair": null, "ref_name": null, "disused": null, "source:name": null, "description": null, "gauge": null, "start_date": null, "name:lt": null, "addr:city": null, "express:user": null, "wikipedia:ru": null, "old_name": null, "alt_name:ru": null, "alt_name:en": null, "alt_name": null, "uic_name": null, "network": null, "name:ru": null, "wikipedia": null, "platforms": null, "int_name": null, "wikidata": "Q116761909", "uic_ref": "2000213", "train": null, "public_transport": "station", "operator:branch": null, "operator": null, "name:en": null, "name": "Пономарево", "esr:user": "215239" }, "geometry": { "type": "Point", "coordinates": [ 37.3282267, 53.6400792 ] } },
{ "type": "Feature", "properties": { "full_id": "n1066713047", "osm_id": "1066713047", "osm_type": "node", "railway": "station", "name:de": null, "end_date": null, "distance": null, "wheelchair": null, "ref_name": null, "disused": null, "source:name": null, "description": null, "gauge": null, "start_date": null, "name:lt": null, "addr:city": null, "express:user": null, "wikipedia:ru": "Ефремов (станция)", "old_name": null, "alt_name:ru": null, "alt_name:en": null, "alt_name": null, "uic_name": "Efremow", "network": null, "name:ru": null, "wikipedia": null, "platforms": null, "int_name": null, "wikidata": "Q16650766", "uic_ref": "2000250", "train": "yes", "public_transport": "station", "operator:branch": "Московская железная дорога", "operator": "ОАО «РЖД»", "name:en": null, "name": "Ефремов", "esr:user": "225300" }, "geometry": { "type": "Point", "coordinates": [ 38.125915, 53.1486473 ] } },
{ "type": "Feature", "properties": { "full_id": "n1216213652", "osm_id": "1216213652", "osm_type": "node", "railway": "station", "name:de": null, "end_date": null, "distance": null, "wheelchair": null, "ref_name": null, "disused": null, "source:name": null, "description": null, "gauge": null, "start_date": null, "name:lt": null, "addr:city": null, "express:user": null, "wikipedia:ru": "Узловая I", "old_name": null, "alt_name:ru": null, "alt_name:en": null, "alt_name": null, "uic_name": "Uslowaja 1", "network": null, "name:ru": null, "wikipedia": null, "platforms": null, "int_name": null, "wikidata": "Q4469847", "uic_ref": "2000230", "train": "yes", "public_transport": "station", "operator:branch": "Московская железная дорога", "operator": "ОАО «РЖД»", "name:en": null, "name": "Узловая-I", "esr:user": "224204" }, "geometry": { "type": "Point", "coordinates": [ 38.1742055, 53.9752087 ] } },
{ "type": "Feature", "properties": { "full_id": "n1375695675", "osm_id": "1375695675", "osm_type": "node", "railway": "station", "name:de": null, "end_date": null, "distance": null, "wheelchair": null, "ref_name": null, "disused": null, "source:name": null, "description": null, "gauge": null, "start_date": null, "name:lt": null, "addr:city": null, "express:user": null, "wikipedia:ru": null, "old_name": null, "alt_name:ru": null, "alt_name:en": null, "alt_name": null, "uic_name": "Wolowo", "network": null, "name:ru": "Волово", "wikipedia": null, "platforms": null, "int_name": null, "wikidata": "Q109647111", "uic_ref": "2000136", "train": "yes", "public_transport": "station", "operator:branch": "Московская железная дорога", "operator": "ОАО «РЖД»", "name:en": "Volovo", "name": "Волово", "esr:user": "224806" }, "geometry": { "type": "Point", "coordinates": [ 37.9938, 53.558 ] } },
{ "type": "Feature", "properties": { "full_id": "n1433328212", "osm_id": "1433328212", "osm_type": "node", "railway": "station", "name:de": null, "end_date": null, "distance": null, "wheelchair": null, "ref_name": null, "disused": null, "source:name": null, "description": null, "gauge": null, "start_date": null, "name:lt": null, "addr:city": null, "express:user": null, "wikipedia:ru": null, "old_name": null, "alt_name:ru": null, "alt_name:en": null, "alt_name": null, "uic_name": "Wenew", "network": null, "name:ru": null, "wikipedia": null, "platforms": null, "int_name": null, "wikidata": null, "uic_ref": "2000124", "train": "yes", "public_transport": "station", "operator:branch": "Московская железная дорога", "operator": "ОАО «РЖД»", "name:en": null, "name": "Венёв", "esr:user": "226708" }, "geometry": { "type": "Point", "coordinates": [ 38.2433159, 54.3479047 ] } },
{ "type": "Feature", "properties": { "full_id": "n1621564224", "osm_id": "1621564224", "osm_type": "node", "railway": "station", "name:de": null, "end_date": null, "distance": null, "wheelchair": null, "ref_name": null, "disused": null, "source:name": null, "description": null, "gauge": null, "start_date": null, "name:lt": null, "addr:city": null, "express:user": null, "wikipedia:ru": null, "old_name": null, "alt_name:ru": null, "alt_name:en": null, "alt_name": null, "uic_name": null, "network": null, "name:ru": null, "wikipedia": null, "platforms": null, "int_name": null, "wikidata": null, "uic_ref": "2001895", "train": null, "public_transport": null, "operator:branch": null, "operator": null, "name:en": null, "name": "Анилиновая", "esr:user": "225847" }, "geometry": { "type": "Point", "coordinates": [ 38.2629345, 54.0756442 ] } },
{ "type": "Feature", "properties": { "full_id": "n1705199126", "osm_id": "1705199126", "osm_type": "node", "railway": "station", "name:de": null, "end_date": null, "distance": null, "wheelchair": null, "ref_name": null, "disused": null, "source:name": null, "description": null, "gauge": null, "start_date": null, "name:lt": null, "addr:city": null, "express:user": null, "wikipedia:ru": null, "old_name": null, "alt_name:ru": null, "alt_name:en": null, "alt_name": null, "uic_name": null, "network": null, "name:ru": null, "wikipedia": null, "platforms": null, "int_name": null, "wikidata": "Q4468138", "uic_ref": "2000214", "train": null, "public_transport": "station", "operator:branch": null, "operator": null, "name:en": null, "name": "Теплое", "esr:user": "215243" }, "geometry": { "type": "Point", "coordinates": [ 37.5913842, 53.6078586 ] } },
{ "type": "Feature", "properties": { "full_id": "n1822743427", "osm_id": "1822743427", "osm_type": "node", "railway": "station", "name:de": null, "end_date": null, "distance": null, "wheelchair": null, "ref_name": null, "disused": null, "source:name": null, "description": null, "gauge": null, "start_date": null, "name:lt": null, "addr:city": null, "express:user": null, "wikipedia:ru": null, "old_name": null, "alt_name:ru": null, "alt_name:en": null, "alt_name": null, "uic_name": null, "network": null, "name:ru": null, "wikipedia": null, "platforms": null, "int_name": null, "wikidata": null, "uic_ref": "2000775", "train": "yes", "public_transport": "station", "operator:branch": "Московская железная дорога", "operator": "ОАО «РЖД»", "name:en": "Nekrasovo", "name": "Некрасово", "esr:user": "211007" }, "geometry": { "type": "Point", "coordinates": [ 37.4874057, 54.2551889 ] } },
{ "type": "Feature", "properties": { "full_id": "n1830063391", "osm_id": "1830063391", "osm_type": "node", "railway": "station", "name:de": null, "end_date": null, "distance": null, "wheelchair": null, "ref_name": null, "disused": null, "source:name": null, "description": null, "gauge": null, "start_date": null, "name:lt": null, "addr:city": null, "express:user": null, "wikipedia:ru": "Плеханово (станция)", "old_name": null, "alt_name:ru": null, "alt_name:en": null, "alt_name": null, "uic_name": null, "network": null, "name:ru": null, "wikipedia": null, "platforms": null, "int_name": null, "wikidata": "Q33000516", "uic_ref": "2000196", "train": "yes", "public_transport": "station", "operator:branch": "Московская железная дорога", "operator": "ОАО «РЖД»", "name:en": "Plekhanovo", "name": "Плеханово", "esr:user": "210004" }, "geometry": { "type": "Point", "coordinates": [ 37.5575068, 54.2352588 ] } },
{ "type": "Feature", "properties": { "full_id": "n1951244176", "osm_id": "1951244176", "osm_type": "node", "railway": "station", "name:de": null, "end_date": null, "distance": null, "wheelchair": null, "ref_name": null, "disused": null, "source:name": null, "description": null, "gauge": null, "start_date": null, "name:lt": null, "addr:city": null, "express:user": null, "wikipedia:ru": null, "old_name": null, "alt_name:ru": null, "alt_name:en": null, "alt_name": null, "uic_name": null, "network": null, "name:ru": null, "wikipedia": null, "platforms": null, "int_name": null, "wikidata": null, "uic_ref": "2000131", "train": "yes", "public_transport": "station", "operator:branch": "Московская железная дорога", "operator": "ОАО «РЖД»", "name:en": null, "name": "Узловая-III", "esr:user": "224401" }, "geometry": { "type": "Point", "coordinates": [ 38.1656013, 53.9473713 ] } },
{ "type": "Feature", "properties": { "full_id": "n2012486865", "osm_id": "2012486865", "osm_type": "node", "railway": "station", "name:de": null, "end_date": null, "distance": null, "wheelchair": null, "ref_name": null, "disused": null, "source:name": null, "description": null, "gauge": null, "start_date": null, "name:lt": null, "addr:city": null, "express:user": null, "wikipedia:ru": null, "old_name": null, "alt_name:ru": null, "alt_name:en": null, "alt_name": null, "uic_name": null, "network": null, "name:ru": null, "wikipedia": null, "platforms": null, "int_name": null, "wikidata": null, "uic_ref": "2001168", "train": "yes", "public_transport": "station", "operator:branch": "Московская железная дорога", "operator": "ОАО «РЖД»", "name:en": null, "name": "Ключёвка", "esr:user": "225902" }, "geometry": { "type": "Point", "coordinates": [ 38.2161995, 54.040524 ] } },
{ "type": "Feature", "properties": { "full_id": "n2012486866", "osm_id": "2012486866", "osm_type": "node", "railway": "station", "name:de": null, "end_date": null, "distance": null, "wheelchair": null, "ref_name": null, "disused": null, "source:name": null, "description": null, "gauge": null, "start_date": null, "name:lt": null, "addr:city": null, "express:user": null, "wikipedia:ru": null, "old_name": null, "alt_name:ru": null, "alt_name:en": null, "alt_name": null, "uic_name": null, "network": null, "name:ru": null, "wikipedia": null, "platforms": null, "int_name": null, "wikidata": null, "uic_ref": "2000128", "train": "yes", "public_transport": "station", "operator:branch": "Московская железная дорога", "operator": "ОАО «РЖД»", "name:en": null, "name": "Маклец", "esr:user": "226500" }, "geometry": { "type": "Point", "coordinates": [ 38.1423155, 54.0712087 ] } },
{ "type": "Feature", "properties": { "full_id": "n2012486877", "osm_id": "2012486877", "osm_type": "node", "railway": "station", "name:de": null, "end_date": null, "distance": null, "wheelchair": null, "ref_name": null, "disused": null, "source:name": null, "description": null, "gauge": null, "start_date": null, "name:lt": null, "addr:city": null, "express:user": null, "wikipedia:ru": null, "old_name": null, "alt_name:ru": null, "alt_name:en": null, "alt_name": null, "uic_name": null, "network": null, "name:ru": null, "wikipedia": null, "platforms": null, "int_name": null, "wikidata": null, "uic_ref": "2001054", "train": "yes", "public_transport": "station", "operator:branch": "Московская железная дорога", "operator": "ОАО «РЖД»", "name:en": null, "name": "Северная", "esr:user": "226407" }, "geometry": { "type": "Point", "coordinates": [ 38.1685148, 54.0784387 ] } },
{ "type": "Feature", "properties": { "full_id": "n2012486878", "osm_id": "2012486878", "osm_type": "node", "railway": "station", "name:de": null, "end_date": null, "distance": null, "wheelchair": null, "ref_name": null, "disused": null, "source:name": null, "description": null, "gauge": null, "start_date": null, "name:lt": null, "addr:city": null, "express:user": null, "wikipedia:ru": null, "old_name": null, "alt_name:ru": null, "alt_name:en": null, "alt_name": null, "uic_name": null, "network": null, "name:ru": null, "wikipedia": "ru:Урванка", "platforms": null, "int_name": null, "wikidata": "Q4476870", "uic_ref": "2000266", "train": "yes", "public_transport": "station", "operator:branch": "Московская железная дорога", "operator": "ОАО «РЖД»", "name:en": null, "name": "Урванка", "esr:user": "225809" }, "geometry": { "type": "Point", "coordinates": [ 38.2554738, 54.0239591 ] } },
{ "type": "Feature", "properties": { "full_id": "n2014288568", "osm_id": "2014288568", "osm_type": "node", "railway": "station", "name:de": null, "end_date": null, "distance": null, "wheelchair": null, "ref_name": null, "disused": null, "source:name": null, "description": null, "gauge": null, "start_date": null, "name:lt": null, "addr:city": null, "express:user": null, "wikipedia:ru": null, "old_name": null, "alt_name:ru": null, "alt_name:en": null, "alt_name": null, "uic_name": null, "network": null, "name:ru": null, "wikipedia": null, "platforms": null, "int_name": null, "wikidata": null, "uic_ref": "2000290", "train": "yes", "public_transport": "station", "operator:branch": "Московская железная дорога", "operator": "ОАО «РЖД»", "name:en": null, "name": "Новомосковская - 1", "esr:user": "225710" }, "geometry": { "type": "Point", "coordinates": [ 38.2705638, 54.0110041 ] } },
{ "type": "Feature", "properties": { "full_id": "n2014288569", "osm_id": "2014288569", "osm_type": "node", "railway": "station", "name:de": null, "end_date": null, "distance": null, "wheelchair": null, "ref_name": null, "disused": null, "source:name": null, "description": null, "gauge": null, "start_date": null, "name:lt": null, "addr:city": null, "express:user": null, "wikipedia:ru": "Черепеть (станция)", "old_name": null, "alt_name:ru": null, "alt_name:en": null, "alt_name": null, "uic_name": "Cherepet", "network": null, "name:ru": null, "wikipedia": null, "platforms": null, "int_name": null, "wikidata": "Q16717830", "uic_ref": "2000199", "train": "yes", "public_transport": "station", "operator:branch": "Московская железная дорога", "operator": "ОАО «РЖД»", "name:en": null, "name": "Черепеть", "esr:user": "212902" }, "geometry": { "type": "Point", "coordinates": [ 36.3471552, 54.10119 ] } },
{ "type": "Feature", "properties": { "full_id": "n2016792703", "osm_id": "2016792703", "osm_type": "node", "railway": "station", "name:de": null, "end_date": null, "distance": null, "wheelchair": "yes", "ref_name": null, "disused": null, "source:name": null, "description": null, "gauge": null, "start_date": null, "name:lt": null, "addr:city": null, "express:user": null, "wikipedia:ru": null, "old_name": null, "alt_name:ru": null, "alt_name:en": null, "alt_name": null, "uic_name": "Tula 1 Kurskaya", "network": null, "name:ru": null, "wikipedia": null, "platforms": null, "int_name": null, "wikidata": "Q4304052", "uic_ref": "2000174", "train": "yes", "public_transport": "station", "operator:branch": "Московская железная дорога", "operator": "ОАО «РЖД»", "name:en": "Tula-I Kurskaya", "name": "Тула-1-Курская", "esr:user": "210201" }, "geometry": { "type": "Point", "coordinates": [ 37.5772623, 54.199855 ] } },
{ "type": "Feature", "properties": { "full_id": "n2110491779", "osm_id": "2110491779", "osm_type": "node", "railway": "station", "name:de": null, "end_date": null, "distance": null, "wheelchair": null, "ref_name": null, "disused": null, "source:name": null, "description": null, "gauge": null, "start_date": null, "name:lt": null, "addr:city": null, "express:user": null, "wikipedia:ru": null, "old_name": null, "alt_name:ru": null, "alt_name:en": null, "alt_name": null, "uic_name": null, "network": null, "name:ru": null, "wikipedia": null, "platforms": null, "int_name": null, "wikidata": null, "uic_ref": "2000191", "train": "yes", "public_transport": "station", "operator:branch": "Московская железная дорога", "operator": "ОАО «РЖД»", "name:en": null, "name": "Алексин", "esr:user": "211401" }, "geometry": { "type": "Point", "coordinates": [ 37.0781912, 54.5003865 ] } },
{ "type": "Feature", "properties": { "full_id": "n2112203473", "osm_id": "2112203473", "osm_type": "node", "railway": "station", "name:de": null, "end_date": null, "distance": null, "wheelchair": null, "ref_name": null, "disused": null, "source:name": null, "description": null, "gauge": null, "start_date": null, "name:lt": null, "addr:city": null, "express:user": null, "wikipedia:ru": null, "old_name": null, "alt_name:ru": null, "alt_name:en": null, "alt_name": null, "uic_name": null, "network": null, "name:ru": null, "wikipedia": null, "platforms": null, "int_name": null, "wikidata": null, "uic_ref": "2000193", "train": "yes", "public_transport": "station", "operator:branch": "Московская железная дорога", "operator": "ОАО «РЖД»", "name:en": null, "name": "Суходол", "esr:user": "211204" }, "geometry": { "type": "Point", "coordinates": [ 37.3538231, 54.4384482 ] } },
{ "type": "Feature", "properties": { "full_id": "n2113502955", "osm_id": "2113502955", "osm_type": "node", "railway": "station", "name:de": null, "end_date": null, "distance": null, "wheelchair": null, "ref_name": null, "disused": null, "source:name": null, "description": null, "gauge": null, "start_date": null, "name:lt": null, "addr:city": null, "express:user": null, "wikipedia:ru": null, "old_name": null, "alt_name:ru": null, "alt_name:en": null, "alt_name": null, "uic_name": null, "network": null, "name:ru": null, "wikipedia": null, "platforms": null, "int_name": null, "wikidata": null, "uic_ref": "2000147", "train": "yes", "public_transport": "station", "operator:branch": "Московская железная дорога", "operator": "ОАО «РЖД»", "name:en": null, "name": "Дедилово", "esr:user": "212103" }, "geometry": { "type": "Point", "coordinates": [ 38.0458318, 54.0220764 ] } },
{ "type": "Feature", "properties": { "full_id": "n2114037634", "osm_id": "2114037634", "osm_type": "node", "railway": "station", "name:de": null, "end_date": null, "distance": null, "wheelchair": null, "ref_name": null, "disused": null, "source:name": null, "description": null, "gauge": null, "start_date": null, "name:lt": null, "addr:city": null, "express:user": null, "wikipedia:ru": null, "old_name": null, "alt_name:ru": null, "alt_name:en": null, "alt_name": null, "uic_name": null, "network": null, "name:ru": null, "wikipedia": null, "platforms": null, "int_name": null, "wikidata": null, "uic_ref": "2000189", "train": "yes", "public_transport": "station", "operator:branch": "Московская железная дорога", "operator": "ОАО «РЖД»", "name:en": null, "name": "Средняя", "esr:user": "211609" }, "geometry": { "type": "Point", "coordinates": [ 36.9661724, 54.5096594 ] } },
{ "type": "Feature", "properties": { "full_id": "n2703292730", "osm_id": "2703292730", "osm_type": "node", "railway": "station", "name:de": null, "end_date": null, "distance": null, "wheelchair": null, "ref_name": null, "disused": null, "source:name": null, "description": null, "gauge": null, "start_date": null, "name:lt": null, "addr:city": null, "express:user": null, "wikipedia:ru": null, "old_name": null, "alt_name:ru": null, "alt_name:en": null, "alt_name": null, "uic_name": null, "network": null, "name:ru": null, "wikipedia": null, "platforms": null, "int_name": null, "wikidata": null, "uic_ref": "2000129", "train": "yes", "public_transport": "station", "operator:branch": "Московская железная дорога", "operator": "ОАО «РЖД»", "name:en": null, "name": "Узловая II", "esr:user": "224308" }, "geometry": { "type": "Point", "coordinates": [ 38.1156999, 54.0083799 ] } },
{ "type": "Feature", "properties": { "full_id": "n4127546840", "osm_id": "4127546840", "osm_type": "node", "railway": "station", "name:de": null, "end_date": null, "distance": null, "wheelchair": null, "ref_name": null, "disused": null, "source:name": null, "description": null, "gauge": null, "start_date": null, "name:lt": null, "addr:city": null, "express:user": null, "wikipedia:ru": null, "old_name": null, "alt_name:ru": null, "alt_name:en": null, "alt_name": null, "uic_name": null, "network": null, "name:ru": null, "wikipedia": null, "platforms": null, "int_name": null, "wikidata": null, "uic_ref": null, "train": null, "public_transport": null, "operator:branch": null, "operator": null, "name:en": null, "name": "Западная", "esr:user": null }, "geometry": { "type": "Point", "coordinates": [ 38.1631538, 54.0837228 ] } },
{ "type": "Feature", "properties": { "full_id": "n4250902692", "osm_id": "4250902692", "osm_type": "node", "railway": "station", "name:de": null, "end_date": null, "distance": null, "wheelchair": null, "ref_name": null, "disused": null, "source:name": null, "description": null, "gauge": null, "start_date": null, "name:lt": null, "addr:city": null, "express:user": null, "wikipedia:ru": "Белёв (станция)", "old_name": null, "alt_name:ru": null, "alt_name:en": null, "alt_name": null, "uic_name": null, "network": null, "name:ru": null, "wikipedia": null, "platforms": null, "int_name": null, "wikidata": "Q4083628", "uic_ref": null, "train": "yes", "public_transport": null, "operator:branch": "Московская железная дорога", "operator": "ОАО «РЖД»", "name:en": null, "name": "Белёв", "esr:user": null }, "geometry": { "type": "Point", "coordinates": [ 36.1214831, 53.8169893 ] } },
{ "type": "Feature", "properties": { "full_id": "n4428083412", "osm_id": "4428083412", "osm_type": "node", "railway": "station", "name:de": null, "end_date": null, "distance": null, "wheelchair": null, "ref_name": null, "disused": null, "source:name": null, "description": null, "gauge": null, "start_date": null, "name:lt": null, "addr:city": null, "express:user": null, "wikipedia:ru": null, "old_name": null, "alt_name:ru": null, "alt_name:en": null, "alt_name": null, "uic_name": null, "network": null, "name:ru": null, "wikipedia": "ru:Скуратово (станция)", "platforms": null, "int_name": null, "wikidata": "Q4422750", "uic_ref": null, "train": "yes", "public_transport": "station", "operator:branch": "Московская железная дорога", "operator": "ОАО «РЖД»", "name:en": null, "name": "Скуратово", "esr:user": "215008" }, "geometry": { "type": "Point", "coordinates": [ 37.0301838, 53.5649888 ] } },
{ "type": "Feature", "properties": { "full_id": "n4572998161", "osm_id": "4572998161", "osm_type": "node", "railway": "station", "name:de": null, "end_date": null, "distance": null, "wheelchair": null, "ref_name": null, "disused": null, "source:name": null, "description": null, "gauge": null, "start_date": null, "name:lt": null, "addr:city": null, "express:user": null, "wikipedia:ru": null, "old_name": null, "alt_name:ru": null, "alt_name:en": null, "alt_name": null, "uic_name": null, "network": null, "name:ru": null, "wikipedia": null, "platforms": null, "int_name": null, "wikidata": null, "uic_ref": null, "train": null, "public_transport": null, "operator:branch": null, "operator": "НАК \"АЗОТ\"", "name:en": null, "name": "Агрегатная", "esr:user": null }, "geometry": { "type": "Point", "coordinates": [ 38.1598413, 54.085304 ] } },
{ "type": "Feature", "properties": { "full_id": "n7410030447", "osm_id": "7410030447", "osm_type": "node", "railway": "station", "name:de": null, "end_date": null, "distance": null, "wheelchair": null, "ref_name": null, "disused": null, "source:name": null, "description": null, "gauge": null, "start_date": null, "name:lt": null, "addr:city": null, "express:user": null, "wikipedia:ru": null, "old_name": null, "alt_name:ru": null, "alt_name:en": null, "alt_name": null, "uic_name": null, "network": null, "name:ru": null, "wikipedia": null, "platforms": null, "int_name": null, "wikidata": null, "uic_ref": "2000188", "train": "yes", "public_transport": "station", "operator:branch": "Московская железная дорога", "operator": "ОАО «РЖД»", "name:en": null, "name": "Чернь", "esr:user": "215402" }, "geometry": { "type": "Point", "coordinates": [ 36.7890657, 53.4335977 ] } },
{ "type": "Feature", "properties": { "full_id": "n9497984363", "osm_id": "9497984363", "osm_type": "node", "railway": "station", "name:de": null, "end_date": null, "distance": null, "wheelchair": null, "ref_name": null, "disused": null, "source:name": null, "description": null, "gauge": null, "start_date": null, "name:lt": null, "addr:city": null, "express:user": null, "wikipedia:ru": null, "old_name": null, "alt_name:ru": null, "alt_name:en": null, "alt_name": null, "uic_name": null, "network": null, "name:ru": null, "wikipedia": null, "platforms": null, "int_name": null, "wikidata": null, "uic_ref": null, "train": "yes", "public_transport": "station", "operator:branch": null, "operator": null, "name:en": null, "name": "Индустриальная", "esr:user": null }, "geometry": { "type": "Point", "coordinates": [ 38.0916772, 54.0483318 ] } },
{ "type": "Feature", "properties": { "full_id": "n9920137591", "osm_id": "9920137591", "osm_type": "node", "railway": "station", "name:de": null, "end_date": null, "distance": null, "wheelchair": null, "ref_name": null, "disused": null, "source:name": null, "description": null, "gauge": null, "start_date": null, "name:lt": null, "addr:city": null, "express:user": null, "wikipedia:ru": null, "old_name": null, "alt_name:ru": null, "alt_name:en": null, "alt_name": null, "uic_name": "Lobanovo", "network": "РЖД", "name:ru": null, "wikipedia": null, "platforms": null, "int_name": null, "wikidata": null, "uic_ref": "2015362", "train": "yes", "public_transport": null, "operator:branch": null, "operator": "Юго-Восточная железная дорога", "name:en": null, "name": "Лобаново", "esr:user": "593601" }, "geometry": { "type": "Point", "coordinates": [ 38.1966667, 53.0598859 ] } },
{ "type": "Feature", "properties": { "full_id": "n9920863548", "osm_id": "9920863548", "osm_type": "node", "railway": "station", "name:de": null, "end_date": null, "distance": null, "wheelchair": null, "ref_name": null, "disused": null, "source:name": null, "description": null, "gauge": null, "start_date": null, "name:lt": null, "addr:city": null, "express:user": null, "wikipedia:ru": null, "old_name": null, "alt_name:ru": null, "alt_name:en": null, "alt_name": null, "uic_name": null, "network": null, "name:ru": null, "wikipedia": null, "platforms": null, "int_name": null, "wikidata": null, "uic_ref": "2000194", "train": "yes", "public_transport": "station", "operator:branch": "Московская железная дорога", "operator": "ОАО «РЖД»", "name:en": "Obidimo", "name": "Обидимо", "esr:user": "211100" }, "geometry": { "type": "Point", "coordinates": [ 37.4676838, 54.2870788 ] } },
{ "type": "Feature", "properties": { "full_id": "n9921034983", "osm_id": "9921034983", "osm_type": "node", "railway": "station", "name:de": null, "end_date": null, "distance": null, "wheelchair": null, "ref_name": null, "disused": null, "source:name": null, "description": null, "gauge": null, "start_date": null, "name:lt": null, "addr:city": null, "express:user": null, "wikipedia:ru": null, "old_name": null, "alt_name:ru": null, "alt_name:en": null, "alt_name": null, "uic_name": null, "network": null, "name:ru": null, "wikipedia": null, "platforms": null, "int_name": null, "wikidata": null, "uic_ref": "2000138", "train": "yes", "public_transport": "station", "operator:branch": "Московская железная дорога", "operator": "ОАО «РЖД»", "name:en": null, "name": "Турдей", "esr:user": "225006" }, "geometry": { "type": "Point", "coordinates": [ 38.0754946, 53.3653218 ] } },
{ "type": "Feature", "properties": { "full_id": "n9921035316", "osm_id": "9921035316", "osm_type": "node", "railway": "station", "name:de": null, "end_date": null, "distance": null, "wheelchair": null, "ref_name": null, "disused": null, "source:name": null, "description": null, "gauge": null, "start_date": null, "name:lt": null, "addr:city": null, "express:user": null, "wikipedia:ru": null, "old_name": null, "alt_name:ru": null, "alt_name:en": null, "alt_name": null, "uic_name": null, "network": null, "name:ru": null, "wikipedia": null, "platforms": null, "int_name": null, "wikidata": null, "uic_ref": "2001386", "train": "yes", "public_transport": "station", "operator:branch": "Московская железная дорога", "operator": "ОАО «РЖД»", "name:en": null, "name": "Малая Андреевка", "esr:user": "225207" }, "geometry": { "type": "Point", "coordinates": [ 38.0948106, 53.2796694 ] } },
{ "type": "Feature", "properties": { "full_id": "n11193124531", "osm_id": "11193124531", "osm_type": "node", "railway": "station", "name:de": null, "end_date": null, "distance": null, "wheelchair": null, "ref_name": null, "disused": null, "source:name": null, "description": null, "gauge": null, "start_date": null, "name:lt": null, "addr:city": null, "express:user": null, "wikipedia:ru": null, "old_name": null, "alt_name:ru": null, "alt_name:en": null, "alt_name": null, "uic_name": null, "network": null, "name:ru": null, "wikipedia": null, "platforms": null, "int_name": null, "wikidata": null, "uic_ref": "2000260", "train": "yes", "public_transport": "station", "operator:branch": "Московская железная дорога", "operator": "ОАО «РЖД»", "name:en": null, "name": "Бобрик-Донской", "esr:user": "225601" }, "geometry": { "type": "Point", "coordinates": [ 38.31148, 53.963108 ] } },
{ "type": "Feature", "properties": { "full_id": "n11193124535", "osm_id": "11193124535", "osm_type": "node", "railway": "station", "name:de": null, "end_date": null, "distance": null, "wheelchair": null, "ref_name": null, "disused": null, "source:name": null, "description": null, "gauge": null, "start_date": null, "name:lt": null, "addr:city": null, "express:user": null, "wikipedia:ru": null, "old_name": null, "alt_name:ru": null, "alt_name:en": null, "alt_name": null, "uic_name": null, "network": null, "name:ru": null, "wikipedia": null, "platforms": null, "int_name": null, "wikidata": null, "uic_ref": "2000267", "train": "yes", "public_transport": "station", "operator:branch": "Московская железная дорога", "operator": "ОАО «РЖД»", "name:en": null, "name": "Сборная-Угольная", "esr:user": "225705" }, "geometry": { "type": "Point", "coordinates": [ 38.2959862, 53.9911942 ] } },
{ "type": "Feature", "properties": { "full_id": "n11193137640", "osm_id": "11193137640", "osm_type": "node", "railway": "station", "name:de": null, "end_date": null, "distance": null, "wheelchair": null, "ref_name": null, "disused": null, "source:name": null, "description": null, "gauge": null, "start_date": null, "name:lt": null, "addr:city": null, "express:user": null, "wikipedia:ru": null, "old_name": null, "alt_name:ru": null, "alt_name:en": null, "alt_name": null, "uic_name": null, "network": null, "name:ru": null, "wikipedia": null, "platforms": null, "int_name": null, "wikidata": null, "uic_ref": null, "train": "yes", "public_transport": null, "operator:branch": "Московская железная дорога", "operator": "ОАО «РЖД»", "name:en": null, "name": "Новомосковская 2", "esr:user": "226303" }, "geometry": { "type": "Point", "coordinates": [ 38.2314241, 54.077092 ] } },
{ "type": "Feature", "properties": { "full_id": "n11194403261", "osm_id": "11194403261", "osm_type": "node", "railway": "station", "name:de": null, "end_date": null, "distance": null, "wheelchair": null, "ref_name": null, "disused": null, "source:name": null, "description": null, "gauge": null, "start_date": null, "name:lt": null, "addr:city": null, "express:user": null, "wikipedia:ru": null, "old_name": null, "alt_name:ru": null, "alt_name:en": null, "alt_name": null, "uic_name": null, "network": null, "name:ru": null, "wikipedia": null, "platforms": null, "int_name": null, "wikidata": null, "uic_ref": "2000143", "train": "yes", "public_transport": "station", "operator:branch": "Московская железная дорога", "operator": "ОАО «РЖД»", "name:en": null, "name": "Присады", "esr:user": "211903" }, "geometry": { "type": "Point", "coordinates": [ 37.8109556, 54.1198706 ] } },
{ "type": "Feature", "properties": { "full_id": "n11215452677", "osm_id": "11215452677", "osm_type": "node", "railway": "station", "name:de": null, "end_date": null, "distance": null, "wheelchair": null, "ref_name": null, "disused": null, "source:name": null, "description": null, "gauge": null, "start_date": null, "name:lt": null, "addr:city": null, "express:user": null, "wikipedia:ru": null, "old_name": null, "alt_name:ru": null, "alt_name:en": null, "alt_name": null, "uic_name": null, "network": null, "name:ru": null, "wikipedia": null, "platforms": null, "int_name": null, "wikidata": null, "uic_ref": "2000778", "train": "yes", "public_transport": "station", "operator:branch": "Московская железная дорога", "operator": "ОАО «РЖД»", "name:en": null, "name": "Энергетик", "esr:user": "211505" }, "geometry": { "type": "Point", "coordinates": [ 37.0242949, 54.4914228 ] } },
{ "type": "Feature", "properties": { "full_id": "n11215813795", "osm_id": "11215813795", "osm_type": "node", "railway": "station", "name:de": null, "end_date": null, "distance": null, "wheelchair": null, "ref_name": null, "disused": null, "source:name": null, "description": null, "gauge": null, "start_date": null, "name:lt": null, "addr:city": null, "express:user": null, "wikipedia:ru": null, "old_name": null, "alt_name:ru": null, "alt_name:en": null, "alt_name": null, "uic_name": null, "network": null, "name:ru": null, "wikipedia": null, "platforms": null, "int_name": null, "wikidata": null, "uic_ref": "2002930", "train": "yes", "public_transport": "station", "operator:branch": "Московская железная дорога", "operator": "ОАО «РЖД»", "name:en": "Balevo", "name": "Балево", "esr:user": "212809" }, "geometry": { "type": "Point", "coordinates": [ 36.4289576, 54.118611 ] } },
{ "type": "Feature", "properties": { "full_id": "n11215813798", "osm_id": "11215813798", "osm_type": "node", "railway": "station", "name:de": null, "end_date": null, "distance": null, "wheelchair": null, "ref_name": null, "disused": null, "source:name": null, "description": null, "gauge": null, "start_date": null, "name:lt": null, "addr:city": null, "express:user": null, "wikipedia:ru": null, "old_name": null, "alt_name:ru": null, "alt_name:en": null, "alt_name": null, "uic_name": null, "network": null, "name:ru": null, "wikipedia": null, "platforms": null, "int_name": null, "wikidata": "Q28004713", "uic_ref": "2000198", "train": "yes", "public_transport": "station", "operator:branch": "Московская железная дорога", "operator": "ОАО «РЖД»", "name:en": "Zbrodovo", "name": "Збродово", "esr:user": "212705" }, "geometry": { "type": "Point", "coordinates": [ 36.5114442, 54.1413691 ] } }
]
}
