{
"type": "FeatureCollection",
"name": "aerodrome",
"crs": { "type": "name", "properties": { "name": "urn:ogc:def:crs:OGC:1.3:CRS84" } },
"features": [
{ "type": "Feature", "properties": { "full_id": "w150165729", "osm_id": "150165729", "osm_type": "way", "aeroway": "aerodrome", "wikipedia:en": null, "owner": null, "contact:youtube": null, "contact:vk": null, "contact:instagram": null, "contact:facebook": null, "communication:radio": null, "closed": "yes", "local_ref": null, "description": null, "website": null, "alt_name": null, "ref:aopa:en": null, "ref": null, "operator": null, "old_ref": null, "official_status": null, "nat_ref": null, "name:uk": null, "military": "airfield", "landuse": null, "wikipedia": null, "wikidata": null, "old_name": null, "official_name": null, "name:ru": "Аэродром Ефремов", "name:en": "Yefremov Air Base", "icao": null, "iata": null, "ele": null, "contact:website": null, "contact:phone": null, "closest_town": null, "aerodrome:type": null, "type": null, "name": "Аэродром Ефремов", "disused": null, "abandoned": null }, "geometry": { "type": "MultiPolygon", "coordinates": [ [ [ [ 38.2337731, 53.1023474 ], [ 38.2370775, 53.0993327 ], [ 38.2394808, 53.0993069 ], [ 38.2416051, 53.1000541 ], [ 38.2435148, 53.1024891 ], [ 38.2474845, 53.1118925 ], [ 38.2533639, 53.1249896 ], [ 38.2550805, 53.1291606 ], [ 38.2549228, 53.1299498 ], [ 38.2533425, 53.1308214 ], [ 38.2512423, 53.1304731 ], [ 38.2448023, 53.1294052 ], [ 38.2429999, 53.1288645 ], [ 38.2418841, 53.128092 ], [ 38.2414334, 53.1273066 ], [ 38.2405322, 53.1264961 ], [ 38.2390087, 53.1262643 ], [ 38.235318, 53.1214356 ], [ 38.2341518, 53.1199193 ], [ 38.2320994, 53.1154473 ], [ 38.2334437, 53.1126686 ], [ 38.2327645, 53.1095741 ], [ 38.2329362, 53.1083633 ], [ 38.2341089, 53.1072072 ], [ 38.2337012, 53.1049013 ], [ 38.2337731, 53.1023474 ] ] ] ] } },
{ "type": "Feature", "properties": { "full_id": "w83075962", "osm_id": "83075962", "osm_type": "way", "aeroway": "aerodrome", "wikipedia:en": null, "owner": null, "contact:youtube": null, "contact:vk": null, "contact:instagram": null, "contact:facebook": null, "communication:radio": null, "closed": null, "local_ref": null, "description": null, "website": null, "alt_name": null, "ref:aopa:en": "UUBT", "ref": "XUBT", "operator": "Министерство обороны Российской Федерации", "old_ref": "ТУЛ", "official_status": "авиабаза", "nat_ref": "УУБТ;ЬУБТ", "name:uk": "Клокове", "military": "airfield", "landuse": "military", "wikipedia": "ru:Клоково (аэропорт)", "wikidata": "Q4224052", "old_name": null, "official_name": null, "name:ru": "Клоково", "name:en": "Tula Klokovo Air Base", "icao": null, "iata": "TYA", "ele": "219", "contact:website": null, "contact:phone": null, "closest_town": "Тула", "aerodrome:type": "regional", "type": null, "name": "Клоково", "disused": null, "abandoned": null }, "geometry": { "type": "MultiPolygon", "coordinates": [ [ [ [ 37.5856234, 54.2389468 ], [ 37.5833489, 54.238997 ], [ 37.5833489, 54.2397494 ], [ 37.5866534, 54.2410535 ], [ 37.5872113, 54.2425833 ], [ 37.5867835, 54.2435431 ], [ 37.5861384, 54.2449907 ], [ 37.585323, 54.2457931 ], [ 37.585838, 54.2464451 ], [ 37.5895247, 54.2484707 ], [ 37.5934376, 54.2486183 ], [ 37.5938614, 54.2459181 ], [ 37.6003434, 54.2462194 ], [ 37.6007296, 54.247097 ], [ 37.6048104, 54.2474986 ], [ 37.6049928, 54.2465959 ], [ 37.6065914, 54.2467213 ], [ 37.608072, 54.2453233 ], [ 37.6104538, 54.242872 ], [ 37.6121167, 54.2431792 ], [ 37.6140333, 54.2405519 ], [ 37.6168983, 54.2410664 ], [ 37.6181264, 54.2392942 ], [ 37.6182808, 54.2381587 ], [ 37.6174254, 54.2360856 ], [ 37.6176704, 54.2350985 ], [ 37.6168498, 54.2346486 ], [ 37.6163335, 54.2343468 ], [ 37.6151491, 54.2336546 ], [ 37.6129605, 54.2336295 ], [ 37.6084114, 54.2337048 ], [ 37.5977684, 54.2341814 ], [ 37.5919319, 54.238044 ], [ 37.5896145, 54.2385205 ], [ 37.5856234, 54.2389468 ] ] ] ] } },
{ "type": "Feature", "properties": { "full_id": "w86552987", "osm_id": "86552987", "osm_type": "way", "aeroway": "aerodrome", "wikipedia:en": null, "owner": null, "contact:youtube": null, "contact:vk": null, "contact:instagram": null, "contact:facebook": null, "communication:radio": null, "closed": null, "local_ref": null, "description": "УУДП", "website": null, "alt_name": null, "ref:aopa:en": null, "ref": null, "operator": "АУЦ ГА гос. предприятие \"2-ой Московский аэроклуб\"", "old_ref": null, "official_status": null, "nat_ref": null, "name:uk": null, "military": null, "landuse": null, "wikipedia": "ru:Пахомово (аэродром)", "wikidata": "Q56313367", "old_name": null, "official_name": null, "name:ru": "Пахомово", "name:en": null, "icao": "UUDP", "iata": null, "ele": null, "contact:website": null, "contact:phone": null, "closest_town": null, "aerodrome:type": null, "type": null, "name": "Пахомово", "disused": null, "abandoned": null }, "geometry": { "type": "MultiPolygon", "coordinates": [ [ [ [ 37.5793341, 54.6304292 ], [ 37.5812085, 54.6295837 ], [ 37.5860288, 54.6281525 ], [ 37.5865604, 54.6279559 ], [ 37.5872574, 54.6274781 ], [ 37.5883848, 54.6260249 ], [ 37.5888037, 54.6247648 ], [ 37.5818111, 54.6215301 ], [ 37.5793409, 54.6214186 ], [ 37.5777433, 54.6212611 ], [ 37.5770521, 54.621084 ], [ 37.5762463, 54.6211185 ], [ 37.5753437, 54.6215852 ], [ 37.5744769, 54.622156 ], [ 37.5741544, 54.6234518 ], [ 37.5742626, 54.6264815 ], [ 37.5752695, 54.628276 ], [ 37.5755386, 54.6284072 ], [ 37.5759447, 54.6289808 ], [ 37.5765857, 54.6290365 ], [ 37.5769222, 54.6289484 ], [ 37.5793341, 54.6304292 ] ] ] ] } },
{ "type": "Feature", "properties": { "full_id": "w719031172", "osm_id": "719031172", "osm_type": "way", "aeroway": "aerodrome", "wikipedia:en": null, "owner": null, "contact:youtube": null, "contact:vk": null, "contact:instagram": null, "contact:facebook": null, "communication:radio": null, "closed": null, "local_ref": "ZDV1", "description": null, "website": null, "alt_name": null, "ref:aopa:en": null, "ref": null, "operator": null, "old_ref": null, "official_status": null, "nat_ref": null, "name:uk": null, "military": null, "landuse": null, "wikipedia": null, "wikidata": null, "old_name": null, "official_name": null, "name:ru": null, "name:en": null, "icao": null, "iata": null, "ele": null, "contact:website": null, "contact:phone": null, "closest_town": null, "aerodrome:type": null, "type": null, "name": "Аэропорт Ольхи", "disused": null, "abandoned": null }, "geometry": { "type": "MultiPolygon", "coordinates": [ [ [ [ 37.2376007, 53.4767736 ], [ 37.2438799, 53.475212 ], [ 37.2435992, 53.4748124 ], [ 37.2425556, 53.475072 ], [ 37.2421216, 53.4744544 ], [ 37.2380194, 53.4754754 ], [ 37.2383794, 53.4759879 ], [ 37.2372469, 53.4762697 ], [ 37.2376007, 53.4767736 ] ] ] ] } }
]
}
